STARLINK-30477          
1 57912U 23146X   26068.06826679 -.00006944  00000+0 -24319-3 0  9992
2 57912  42.9994 314.0913 0001519 268.5622  91.5056 15.27558432137000
2025-155V               
1 64895U 25155V   26068.85787115  .00013705  00000+0  51002-3 0  9990
2 64895  97.4485  37.2490 0008035 152.8264 207.3397 15.27583301 65579
